H1 CPF  1  DLR 2021 10 28 10  8012 technosat            
H2  1704205 6203    42829 2021 10 28 00 00 00 2021 11 04 00 00 00    60 1 1  0 0 0
H9
10 0 59517  14400.000000  0       -733248.744        586913.956      -6924949.193
10 0 59517  14460.000000  0       -546787.804       1002018.447      -6894095.780
10 0 59517  14520.000000  0       -354443.248       1411294.628      -6834334.545
10 0 59517  14580.000000  0       -157073.951       1812989.262      -6745907.271
10 0 59517  14640.000000  0         44424.588       2205386.748      -6629174.213
10 0 59517  14700.000000  0        249124.183       2586816.311      -6484612.912
10 0 59517  14760.000000  0        456068.108       2955659.039      -6312816.575
10 0 59517  14820.000000  0        664275.428       3310354.733      -6114491.923
10 0 59517  14880.000000  0        872745.449       3649408.446      -5890456.609
10 0 59517  14940.000000  0       1080462.361       3971396.805      -5641636.303
10 0 59517  15000.000000  0       1286400.039       4274974.119      -5369061.322
10 0 59517  15060.000000  0       1489526.981       4558878.197      -5073862.824
10 0 59517  15120.000000  0       1688811.377       4821935.879      -4757268.521
10 0 59517  15180.000000  0       1883226.242       5063068.196      -4420597.912
10 0 59517  15240.000000  0       2071754.615       5281295.076      -4065257.101
10 0 59517  15300.000000  0       2253394.767       5475739.672      -3692733.262
10 0 59517  15360.000000  0       2427165.450       5645632.295      -3304588.701
10 0 59517  15420.000000  0       2592111.134       5790313.883      -2902454.504
10 0 59517  15480.000000  0       2747307.200       5909238.968      -2488023.817
10 0 59517  15540.000000  0       2891865.055       6001978.131      -2063044.784
10 0 59517  15600.000000  0       3024937.116       6068219.924      -1629313.161
10 0 59517  15660.000000  0       3145721.649       6107772.224      -1188664.625
10 0 59517  15720.000000  0       3253467.410       6120562.985       -742966.860
10 0 59517  15780.000000  0       3347478.063       6106640.412       -294111.444
10 0 59517  15840.000000  0       3427116.366       6066172.540        155994.408
10 0 59517  15900.000000  0       3491808.078       5999446.207        605436.198
10 0 59517  15960.000000  0       3541045.611       5906865.468       1052300.541
10 0 59517  16020.000000  0       3574391.360       5788949.452       1494683.618
10 0 59517  16080.000000  0       3591480.669       5646329.623       1930699.609
10 0 59517  16140.000000  0       3592024.410       5479746.535       2358489.048
10 0 59517  16200.000000  0       3575811.198       5290046.033       2776227.146
10 0 59517  16260.000000  0       3542709.237       5078174.801       3182131.931
10 0 59517  16320.000000  0       3492667.719       4845175.411       3574472.030
10 0 59517  16380.000000  0       3425717.881       4592181.110       3951574.184
10 0 59517  16440.000000  0       3341973.651       4320410.236       4311830.718
10 0 59517  16500.000000  0       3241631.683       4031160.059       4653706.715
10 0 59517  16560.000000  0       3124970.915       3725800.211       4975746.580
10 0 59517  16620.000000  0       2992351.862       3405765.962       5276580.191
10 0 59517  16680.000000  0       2844215.525       3072551.190       5554928.696
10 0 59517  16740.000000  0       2681081.915       2727701.212       5809609.826
10 0 59517  16800.000000  0       2503548.221       2372805.468       6039542.905
10 0 59517  16860.000000  0       2312286.515       2009489.924       6243753.415
10 0 59517  16920.000000  0       2108041.056       1639409.396       6421376.975
10 0 59517  16980.000000  0       1891625.263       1264239.829       6571662.823
10 0 59517  17040.000000  0       1663918.336        885670.590       6693976.796
10 0 59517  17100.000000  0       1425861.564        505396.801       6787803.805
10 0 59517  17160.000000  0       1178454.364        125111.756       6852749.890
10 0 59517  17220.000000  0        922750.017       -253500.695       6888543.870
10 0 59517  17280.000000  0        659851.082       -628773.762       6895038.391
10 0 59517  17340.000000  0        390904.578       -999065.108       6872210.397
10 0 59517  17400.000000  0        117096.893      -1362764.075       6820161.176
10 0 59517  17460.000000  0       -160351.515      -1718298.761       6739115.837
10 0 59517  17520.000000  0       -440191.617      -2064142.871       6629422.318
10 0 59517  17580.000000  0       -721151.500      -2398822.334       6491549.840
10 0 59517  17640.000000  0      -1001942.120      -2720921.605       6326086.846
10 0 59517  17700.000000  0      -1281263.144      -3029089.656       6133738.535
10 0 59517  17760.000000  0      -1557808.955      -3322045.721       5915324.021
10 0 59517  17820.000000  0      -1830274.802      -3598584.717       5671772.961
10 0 59517  17880.000000  0      -2097363.009      -3857582.326       5404121.740
10 0 59517  17940.000000  0      -2357789.262      -4097999.741       5113509.191
10 0 59517  18000.000000  0      -2610288.918      -4318888.007       4801171.788
10 0 59517  18060.000000  0      -2853623.230      -4519391.876       4468438.375
10 0 59517  18120.000000  0      -3086585.506      -4698753.251       4116724.528
10 0 59517  18180.000000  0      -3308007.161      -4856314.177       3747526.449
10 0 59517  18240.000000  0      -3516763.561      -4991519.283       3362414.511
10 0 59517  18300.000000  0      -3711779.714      -5103917.783       2963026.538
10 0 59517  18360.000000  0      -3892035.806      -5193165.005       2551060.747
10 0 59517  18420.000000  0      -4056572.515      -5259023.381       2128268.384
10 0 59517  18480.000000  0      -4204496.062      -5301362.917       1696446.107
10 0 59517  18540.000000  0      -4334982.957      -5320161.116       1257428.158
10 0 59517  18600.000000  0      -4447284.415      -5315502.391        813078.372
10 0 59517  18660.000000  0      -4540730.435      -5287576.958        365282.069
10 0 59517  18720.000000  0      -4614733.526      -5236679.234        -84062.158
10 0 59517  18780.000000  0      -4668792.020      -5163205.726       -533050.736
10 0 59517  18840.000000  0      -4702492.965      -5067652.414       -979783.404
10 0 59517  18900.000000  0      -4715514.552      -4950611.647      -1422371.470
10 0 59517  18960.000000  0      -4707628.111      -4812768.574      -1858945.959
10 0 59517  19020.000000  0      -4678699.630      -4654897.154      -2287665.620
10 0 59517  19080.000000  0      -4628690.819      -4477855.763      -2706724.738
10 0 59517  19140.000000  0      -4557659.718      -4282582.471      -3114360.722
10 0 59517  19200.000000  0      -4465760.839      -4070089.994      -3508861.468
10 0 59517  19260.000000  0      -4353244.860      -3841460.349      -3888572.422
10 0 59517  19320.000000  0      -4220457.888      -3597839.278      -4251903.363
10 0 59517  19380.000000  0      -4067840.281      -3340430.402      -4597334.871
10 0 59517  19440.000000  0      -3895925.027      -3070489.186      -4923424.420
10 0 59517  19500.000000  0      -3705335.703      -2789316.758      -5228812.101
10 0 59517  19560.000000  0      -3496784.053      -2498253.612      -5512225.943
10 0 59517  19620.000000  0      -3271067.191      -2198673.228      -5772486.848
10 0 59517  19680.000000  0      -3029064.460      -1891975.620      -6008513.155
10 0 59517  19740.000000  0      -2771733.902      -1579580.836      -6219324.777
10 0 59517  19800.000000  0      -2500108.376      -1262922.462      -6404046.907
10 0 59517  19860.000000  0      -2215291.365       -943441.158      -6561913.270
10 0 59517  19920.000000  0      -1918452.486       -622578.248      -6692268.931
10 0 59517  19980.000000  0      -1610822.756       -301769.401      -6794572.648
10 0 59517  20040.000000  0      -1293689.643         17561.550      -6868398.819
10 0 59517  20100.000000  0       -968391.876        334008.676      -6913439.123
10 0 59517  20160.000000  0       -636313.949        646189.948      -6929503.735
10 0 59517  20220.000000  0       -298880.426        952753.104      -6916522.035
10 0 59517  20280.000000  0         42449.905       1252381.270      -6874542.866
10 0 59517  20340.000000  0        386190.022       1543798.367      -6803734.555
10 0 59517  20400.000000  0        730830.978       1825774.484      -6704384.540
10 0 59517  20460.000000  0       1074848.411       2097131.004      -6576898.339
10 0 59517  20520.000000  0       1416709.053       2356745.404      -6421798.104
10 0 59517  20580.000000  0       1754877.341       2603555.905      -6239720.885
10 0 59517  20640.000000  0       2087822.240       2836565.869      -6031416.350
10 0 59517  20700.000000  0       2414024.047       3054847.815      -5797744.011
10 0 59517  20760.000000  0       2731981.195       3257547.149      -5539670.103
10 0 59517  20820.000000  0       3040217.104       3443885.654      -5258264.094
10 0 59517  20880.000000  0       3337287.083       3613164.695      -4954694.689
10 0 59517  20940.000000  0       3621785.177       3764768.022      -4630225.367
10 0 59517  21000.000000  0       3892350.923       3898164.213      -4286209.511
10 0 59517  21060.000000  0       4147676.012       4012908.769      -3924085.107
10 0 59517  21120.000000  0       4386510.829       4108645.787      -3545369.004
10 0 59517  21180.000000  0       4607670.767       4185109.211      -3151650.758
10 0 59517  21240.000000  0       4810042.278       4242123.667      -2744586.109
10 0 59517  21300.000000  0       4992588.662       4279604.865      -2325890.165
10 0 59517  21360.000000  0       5154355.654       4297559.602      -1897330.236
10 0 59517  21420.000000  0       5294476.614       4296085.268      -1460718.286
10 0 59517  21480.000000  0       5412177.303       4275368.911      -1017903.192
10 0 59517  21540.000000  0       5506780.257       4235685.876       -570762.778
99
